EUTELSAT 53A            
1 40277U 14064A   26160.20980113  .00000115  00000+0  00000+0 0  9999
2 40277   0.0145 284.0351 0000791 258.5594 203.5265  1.00270479 41480
GSAT-16                 
1 40332U 14078A   26161.20827809  .00000102  00000+0  00000+0 0  9995
2 40332   0.0709  92.4348 0007671 353.3168 302.8783  1.00272397 42031
DIRECTV 14              
1 40333U 14078B   26160.05357880 -.00000109  00000+0  00000+0 0  9993
2 40333   0.0091   1.3268 0000235 206.1301 330.0282  1.00271044 41965
YAMAL 401               
1 40345U 14082A   26160.73080479 -.00000212  00000+0  00000+0 0  9998
2 40345   0.0122 251.8924 0000587 232.2841 126.9842  1.00273523 41848
ASTRA 2G                
1 40364U 14089A   26161.20290473  .00000167  00000+0  00000+0 0  9994
2 40364   0.0525  19.0031 0004828  42.3125 298.4832  1.00271651 41895
FENGYUN 2G              
1 40367U 14090A   26160.83345512 -.00000287  00000+0  00000+0 0  9996
2 40367   5.6193  72.9049 0003515 153.2834  71.6860  1.00276216 41926
MUOS-3                  
1 40374U 15002A   26161.17197495 -.00000113  00000+0  00000+0 0  9999
2 40374   4.5080  43.4966 0051635 178.3921  83.1226  1.00271937 41513
INMARSAT 5-F2           
1 40384U 15005A   26161.25777958 -.00000268  00000+0  00000+0 0  9991
2 40384   0.0182 351.2661 0000505 247.2364  57.9202  1.00271089 40922
ABS-3A                  
1 40424U 15010A   26161.16642262 -.00000009  00000+0  00000+0 0  9994
2 40424   0.0057  21.9934 0001893  14.1874 279.2427  1.00269951 41306
EUTELSAT 115 WEST B     
1 40425U 15010B   26159.96266212 -.00000008  00000+0  00000+0 0  9996
2 40425   0.0228 162.5014 0000097 167.0892 159.4034  1.00271121 41317
EXPRESS-AM7             
1 40505U 15012A   26161.27658634  .00000168  00000+0  00000+0 0  9993
2 40505   0.0142 304.5681 0003142 146.8216 306.8423  1.00273640 40933
BEIDOU-3S IGSO-1S       
1 40549U 15019A   26160.88590677 -.00000175  00000+0  00000+0 0  9995
2 40549  49.2105 295.5512 0038643 190.9335 182.7618  1.00252007 41003
THOR 7                  
1 40613U 15022A   26161.26852631  .00000009  00000+0  00000+0 0  9990
2 40613   0.0357 125.2569 0002538 315.4142 273.9752  1.00271350 40748
TURKMENALEM52E/MONACOSAT
1 40617U 15023A   26161.13635248  .00000121  00000+0  00000+0 0  9999
2 40617   0.0124  36.7248 0002848  43.8342 279.0627  1.00273471 40779
DIRECTV 15              
1 40663U 15026A   26161.24830157 -.00000085  00000+0  00000+0 0  9991
2 40663   0.0184   3.7345 0000653 280.2777 321.1253  1.00269531 40393
SKY MEXICO-1            
1 40664U 15026B   26161.18173657 -.00000217  00000+0  00000+0 0  9997
2 40664   0.0149 307.2100 0002102 150.5136 147.4526  1.00270961 40385
METEOSAT-11 (MSG-4)     
1 40732U 15034A   26161.27051964  .00000081  00000+0  00000+0 0  9996
2 40732   3.1848  71.1496 0001720   7.0467 287.2978  1.00278178  7143
STAR ONE C4             
1 40733U 15034B   26161.25474624 -.00000248  00000+0  00000+0 0  9993
2 40733   0.0249  15.6588 0002214  52.0318 212.6465  1.00272315 39947
WGS F7 (USA 263)        
1 40746U 15036A   26161.16067212  .00000035  00000+0  00000+0 0  9993
2 40746   0.0022 358.4485 0000480 321.3767 171.5229  1.00271044 39801
INTELSAT 34 (IS-34)     
1 40874U 15039A   26161.25769292 -.00000268  00000+0  00000+0 0  9994
2 40874   0.0113 322.7949 0000364  13.9529 319.1622  1.00270241 39562
EUTELSAT 8 WEST B       
1 40875U 15039B   26161.26705296 -.00000048  00000+0  00000+0 0  9996
2 40875   0.0638   0.1026 0003882  76.1409 270.5240  1.00271529 39582
GSAT-6                  
1 40880U 15041A   26161.14241918 -.00000143  00000+0  00000+0 0  9994
2 40880   1.9020  82.6801 0003416 351.8985 317.7186  1.00271246 39527
INMARSAT 5-F3           
1 40882U 15042A   26161.09035882  .00000068  00000+0  00000+0 0  9997
2 40882   0.0189   5.0391 0000131   2.5911 102.9963  1.00269424 39508
MUOS-4                  
1 40887U 15044A   26161.23378016 -.00000078  00000+0  00000+0 0  9991
2 40887   4.3162  42.1931 0059308   4.8119  10.7835  1.00271486 39491
TJS-1                   
1 40892U 15046A   26161.22803856 -.00000138  00000+0  00000+0 0  9990
2 40892   0.3043  84.9734 0005640 356.0122  54.7620  1.00271941 39500
EXPRESS-AM8             
1 40895U 15048A   26160.29424391 -.00000095  00000+0  00000+0 0  9996
2 40895   0.0164 284.6677 0000207 106.8020 318.1378  1.00271280 39267
BEIDOU-3S IGSO-2S       
1 40938U 15053A   26160.87932326 -.00000151  00000+0  00000+0 0  9999
2 40938  49.2333 258.8715 0065277 191.8328 219.6473  1.00261220 39283
SKY MUSTER 1 (NBN1A)    
1 40940U 15054A   26161.29639590 -.00000261  00000+0  00000+0 0  9999
2 40940   0.0177 331.5852 0001697 117.5995  56.4355  1.00270343 39191
ARSAT 2                 
1 40941U 15054B   26161.18130324 -.00000207  00000+0  00000+0 0  9999
2 40941   0.0167  23.6123 0001942  44.3394 174.8532  1.00269229 39232
MORELOS 3               
1 40946U 15056A   26161.24622157 -.00000028  00000+0  00000+0 0  9994
2 40946   3.1815  14.8971 0001496 357.7120 221.5239  1.00271825 39213
APSTAR-9                
1 40982U 15059A   26161.29674257 -.00000249  00000+0  00000+0 0  9995
2 40982   0.0181  10.3294 0002378 172.9109 324.2453  1.00269214 39058
